STARLINK-32561          
1 62026U 24213U   26068.54776594  .00028267  00000+0  96317-3 0  9990
2 62026  53.1590 168.7454 0000924  85.2752 274.8354 15.30190093 73138
TEVEL2-3                
1 63218U 25052J   26068.64540225  .00020365  00000+0  69446-3 0  9991
2 63218  97.3994 324.7775 0004761 105.7353 254.4413 15.30377031 54855
